{
    "links": {
        "self": "http://www.neowsapp.com/rest/v1/neo/3647020?api_key=iIulBulltgU6a56xZRHN4H3l9WmuAYTsLGpBGhQ2"
    },
    "id": "3647020",
    "neo_reference_id": "3647020",
    "name": "(2013 RY5)",
    "designation": "2013 RY5",
    "nasa_jpl_url": "http://ssd.jpl.nasa.gov/sbdb.cgi?sstr=3647020",
    "absolute_magnitude_h": 23.2,
    "estimated_diameter": {
        "kilometers": {
            "estimated_diameter_min": 0.0608912622,
            "estimated_diameter_max": 0.1361570015
        },
        "meters": {
            "estimated_diameter_min": 60.8912622106,
            "estimated_diameter_max": 136.1570015386
        },
        "miles": {
            "estimated_diameter_min": 0.0378360645,
            "estimated_diameter_max": 0.0846040122
        },
        "feet": {
            "estimated_diameter_min": 199.7744887109,
            "estimated_diameter_max": 446.7093369279
        }
    },
    "is_potentially_hazardous_asteroid": false,
    "close_approach_data": [
        {
            "close_approach_date": "2013-09-26",
            "close_approach_date_full": "2013-Sep-26 04:45",
            "epoch_date_close_approach": 1380170700000,
            "relative_velocity": {
                "kilometers_per_second": "6.8386000168",
                "kilometers_per_hour": "24618.9600606469",
                "miles_per_hour": "15297.2643776836"
            },
            "miss_distance": {
                "astronomical": "0.0965339853",
                "lunar": "37.5517202817",
                "kilometers": "14441278.583491311",
                "miles": "8973394.4099536518"
            },
            "orbiting_body": "Earth"
        },
        {
            "close_approach_date": "2028-10-31",
            "close_approach_date_full": "2028-Oct-31 02:30",
            "epoch_date_close_approach": 1856572200000,
            "relative_velocity": {
                "kilometers_per_second": "12.0906153951",
                "kilometers_per_hour": "43526.2154224288",
                "miles_per_hour": "27045.4975773419"
            },
            "miss_distance": {
                "astronomical": "0.2698242436",
                "lunar": "104.9616307604",
                "kilometers": "40365132.116921132",
                "miles": "25081730.0421783416"
            },
            "orbiting_body": "Earth"
        }
    ],
    "orbital_data": {
        "orbit_id": "19",
        "orbit_determination_date": "2017-04-06 08:44:55",
        "first_observation_date": "2013-09-02",
        "last_observation_date": "2013-11-03",
        "data_arc_in_days": 62,
        "observations_used": 86,
        "orbit_uncertainty": "6",
        "minimum_orbit_intersection": ".0916166",
        "jupiter_tisserand_invariant": "3.282",
        "epoch_osculation": "2459000.5",
        "eccentricity": ".5524259137161684",
        "semi_major_axis": "2.417996634142063",
        "inclination": "6.292245625637505",
        "ascending_node_longitude": "166.2118868200969",
        "orbital_period": "1373.352317945822",
        "perihelion_distance": "1.082232634163514",
        "perihelion_argument": "206.2395169253018",
        "aphelion_distance": "3.753760634120612",
        "perihelion_time": "2459316.905985391346",
        "mean_anomaly": "277.0597717334046",
        "mean_motion": ".2621322986795306",
        "equinox": "J2000",
        "orbit_class": {
            "orbit_class_type": "AMO",
            "orbit_class_description": "Near-Earth asteroid orbits similar to that of 1221 Amor",
            "orbit_class_range": "1.017 AU < q (perihelion) < 1.3 AU"
        }
    },
    "is_sentry_object": false
}